NORAD_CAT_ID,OBJECT_NAME,OBJECT_TYPE,EPOCH,MEAN_MOTION,ECCENTRICITY,INCLINATION,RA_OF_ASC_NODE,ARG_OF_PERICENTER,MEAN_ANOMALY,BSTAR,MEAN_MOTION_DOT,MEAN_MOTION_DDOT,TLE_LINE0,TLE_LINE1,TLE_LINE2,SEMIMAJOR_AXIS,PERIOD,APOGEE,PERIGEE,DECAYED
52460.0,STARLINK-3865,PAYLOAD,2024-07-15 19:28:23,15.08837766,0.0001396,53.2165,241.0089,90.1366,269.9786,1.701e-05,-1.7e-07,0.0,0 STARLINK-3865,1 52460U 22049K   24197.81138880 -.00000017  00000-0  17010-4 0  9996,2 52460  53.2165 241.0089 0001396  90.1366 269.9786 15.08837766121382,6917.887,95.438,540.718,538.786,0.0
52460.0,STARLINK-3865,PAYLOAD,2024-07-16 09:46:52,15.08839721,0.0001365,53.2163,238.3325,89.4874,270.6274,5.206e-05,5.41e-06,0.0,0 STARLINK-3865,1 52460U 22049K   24198.40754711  .00000541  00000-0  52060-4 0  9994,2 52460  53.2163 238.3325 0001365  89.4874 270.6274 15.08839721121477,6917.881,95.438,540.691,538.802,0.0
52460.0,STARLINK-3865,PAYLOAD,2024-07-17 11:13:03,15.08828531,0.0001488,53.2159,233.5749,85.3411,274.7751,-1.9322e-05,-5.95e-06,0.0,0 STARLINK-3865,1 52460U 22049K   24199.46739973 -.00000595  00000-0 -19322-4 0  9999,2 52460  53.2159 233.5749 0001488  85.3411 274.7751 15.08828531121794,6917.915,95.438,540.81,538.751,0.0
52460.0,STARLINK-3865,PAYLOAD,2024-07-18 11:03:49,15.08841058,0.0001387,53.2161,229.1145,85.4823,274.6328,5.9814e-05,6.64e-06,0.0,0 STARLINK-3865,1 52460U 22049K   24200.46099165  .00000664  00000-0  59814-4 0  9999,2 52460  53.2161 229.1145 0001387  85.4823 274.6328 15.08841058121949,6917.877,95.437,540.702,538.783,0.0
52460.0,STARLINK-3865,PAYLOAD,2024-07-19 10:54:37,15.08831966,0.0001492,53.2164,224.6505,76.3914,283.7244,0.0002076,3.017e-05,0.0,0 STARLINK-3865,1 52460U 22049K   24201.45459550  .00003017  00000-0  20760-3 0  9999,2 52460  53.2164 224.6505 0001492  76.3914 283.7244 15.08831966122091,6917.905,95.438,540.802,538.738,0.0
52460.0,STARLINK-3865,PAYLOAD,2024-07-19 18:51:32,15.08847314,0.0001426,53.2159,223.1636,84.5253,275.5902,-8.8896e-05,-1.703e-05,0.0,0 STARLINK-3865,1 52460U 22049K   24201.78579171 -.00001703  00000-0 -88896-4 0  9994,2 52460  53.2159 223.1636 0001426  84.5253 275.5902 15.08847314122148,6917.858,95.437,540.71,538.737,0.0
52460.0,STARLINK-3865,PAYLOAD,2024-07-20 01:13:05,15.0883782,0.0001463,53.2166,221.9764,86.1397,273.9762,3.6235e-05,2.89e-06,0.0,0 STARLINK-3865,1 52460U 22049K   24202.05075653  .00000289  00000-0  36235-4 0  9997,2 52460  53.2166 221.9764 0001463  86.1397 273.9762 15.08837820122183,6917.887,95.438,540.764,538.74,0.0
52460.0,STARLINK-3865,PAYLOAD,2024-07-20 07:34:37,15.08839833,0.0001333,53.2157,220.7864,89.9924,270.1221,4.3135e-05,3.99e-06,0.0,0 STARLINK-3865,1 52460U 22049K   24202.31571459  .00000399  00000-0  43135-4 0  9990,2 52460  53.2157 220.7864 0001333  89.9924 270.1221 15.08839833122066,6917.881,95.438,540.668,538.824,0.0
52460.0,STARLINK-3865,PAYLOAD,2024-07-20 18:42:19,15.08840994,0.0001349,53.2159,218.705,89.5071,270.6076,6.5363e-05,7.53e-06,0.0,0 STARLINK-3865,1 52460U 22049K   24202.77939362  .00000753  00000-0  65363-4 0  9992,2 52460  53.2159 218.7050 0001349  89.5071 270.6076 15.08840994122139,6917.877,95.437,540.676,538.809,0.0
52460.0,STARLINK-3865,PAYLOAD,2024-07-21 04:14:38,15.08842326,0.0001345,53.2157,216.9213,87.7902,272.3244,5.7041e-05,6.2e-06,0.0,0 STARLINK-3865,1 52460U 22049K   24203.17683292  .00000620  00000-0  57041-4 0  9992,2 52460  53.2157 216.9213 0001345  87.7902 272.3244 15.08842326122358,6917.873,95.437,540.669,538.808,0.0
52460.0,STARLINK-3865,PAYLOAD,2024-07-21 07:25:24,15.08843759,0.000135,53.2158,216.3264,89.1058,271.0089,6.884e-05,8.08e-06,0.0,0 STARLINK-3865,1 52460U 22049K   24203.30931138  .00000808  00000-0  68840-4 0  9999,2 52460  53.2158 216.3264 0001350  89.1058 271.0089 15.08843759122212,6917.869,95.437,540.668,538.8,0.0
52460.0,STARLINK-3865,PAYLOAD,2024-07-22 05:40:48,15.08838652,0.0001341,53.2158,212.1635,88.6477,271.4669,4.8264e-05,4.8e-06,0.0,0 STARLINK-3865,1 52460U 22049K   24204.23667540  .00000480  00000-0  48264-4 0  9999,2 52460  53.2158 212.1635 0001341  88.6477 271.4669 15.08838652122514,6917.885,95.438,540.677,538.822,0.0
52460.0,STARLINK-3865,PAYLOAD,2024-07-22 10:26:58,15.08839773,0.0001359,53.2159,211.2715,89.4387,270.676,4.8315e-05,4.81e-06,0.0,0 STARLINK-3865,1 52460U 22049K   24204.43539468  .00000481  00000-0  48315-4 0  9996,2 52460  53.2159 211.2715 0001359  89.4387 270.6760 15.08839773122385,6917.881,95.438,540.686,538.806,0.0
52460.0,STARLINK-3865,PAYLOAD,2024-07-23 23:00:50,15.08832939,0.0001396,53.2153,204.433,90.6962,269.419,8.1884e-06,-1.58e-06,0.0,0 STARLINK-3865,1 52460U 22049K   24205.95892212 -.00000158  00000-0  81884-5 0  9994,2 52460  53.2153 204.4330 0001396  90.6962 269.4190 15.08832939122616,6917.902,95.438,540.733,538.801,0.0
52460.0,STARLINK-3865,PAYLOAD,2024-07-24 05:22:23,15.08830458,0.000134,53.2155,203.2434,90.205,269.9096,-1.9298e-05,-5.95e-06,0.0,0 STARLINK-3865,1 52460U 22049K   24206.22388538 -.00000595  00000-0 -19298-4 0  9991,2 52460  53.2155 203.2434 0001340  90.2050 269.9096 15.08830458122819,6917.91,95.438,540.702,538.848,0.0
52460.0,STARLINK-3865,PAYLOAD,2024-07-24 06:57:46,15.08830222,0.0001334,53.2155,202.946,89.9434,270.1711,-2.2207e-05,-6.41e-06,0.0,0 STARLINK-3865,1 52460U 22049K   24206.29012592 -.00000641  00000-0 -22207-4 0  9998,2 52460  53.2155 202.9460 0001334  89.9434 270.1711 15.08830222122668,6917.91,95.438,540.698,538.852,0.0
52460.0,STARLINK-3865,PAYLOAD,2024-07-25 05:13:10,15.08837065,0.0001315,53.2158,198.7834,91.0948,269.0195,4.2396e-05,3.87e-06,0.0,0 STARLINK-3865,1 52460U 22049K   24207.21748318  .00000387  00000-0  42396-4 0  9999,2 52460  53.2158 198.7834 0001315  91.0948 269.0195 15.08837065122969,6917.889,95.438,540.664,538.845,0.0
52460.0,STARLINK-3865,PAYLOAD,2024-07-26 08:14:43,15.08837169,0.0001228,53.2154,193.7272,88.3376,271.7756,9.8125e-05,1.274e-05,0.0,0 STARLINK-3865,1 52460U 22049K   24208.34356373  .00001274  00000-0  98125-4 0  9997,2 52460  53.2154 193.7272 0001228  88.3376 271.7756 15.08837169123131,6917.889,95.438,540.604,538.905,0.0
52460.0,STARLINK-3865,PAYLOAD,2024-07-26 22:33:11,15.08842537,0.0001283,53.2156,191.0507,89.3478,270.7661,5.7592e-05,6.29e-06,0.0,0 STARLINK-3865,1 52460U 22049K   24208.93972196  .00000629  00000-0  57592-4 0  9995,2 52460  53.2156 191.0507 0001283  89.3478 270.7661 15.08842537123061,6917.873,95.437,540.625,538.85,0.0
52460.0,STARLINK-3865,PAYLOAD,2024-07-27 06:30:07,15.08843832,0.0001325,53.2159,189.5639,88.8774,271.237,6.3948e-05,7.3e-06,0.0,0 STARLINK-3865,1 52460U 22049K   24209.27092040  .00000730  00000-0  63948-4 0  9999,2 52460  53.2159 189.5639 0001325  88.8774 271.2370 15.08843832123110,6917.869,95.437,540.65,538.817,0.0
52460.0,STARLINK-3865,PAYLOAD,2024-07-28 04:45:32,15.08836453,0.0001372,53.2159,185.4012,87.5374,272.5775,-1.515e-05,-5.29e-06,0.0,0 STARLINK-3865,1 52460U 22049K   24210.19828827 -.00000529  00000-0 -15150-4 0  9992,2 52460  53.2159 185.4012 0001372  87.5374 272.5775 15.08836453123411,6917.891,95.438,540.705,538.807,0.0
52460.0,STARLINK-3865,PAYLOAD,2024-07-29 04:36:18,15.08842748,0.0001424,53.2162,180.9414,85.8601,274.2554,5.2281e-05,5.44e-06,0.0,0 STARLINK-3865,1 52460U 22049K   24211.19188189  .00000544  00000-0  52281-4 0  9994,2 52460  53.2162 180.9414 0001424  85.8601 274.2554 15.08842748123567,6917.872,95.437,540.722,538.752,0.0
52460.0,STARLINK-3865,PAYLOAD,2024-07-30 04:27:05,15.08837729,0.00014,53.2161,176.4791,87.9729,272.1424,4.4527e-05,4.21e-06,0.0,0 STARLINK-3865,1 52460U 22049K   24212.18548583  .00000421  00000-0  44527-4 0  9990,2 52460  53.2161 176.4791 0001400  87.9729 272.1424 15.08837729123715,6917.887,95.438,540.721,538.784,0.0
52460.0,STARLINK-3865,PAYLOAD,2024-07-31 04:17:52,15.08845071,0.0001412,53.2161,172.0194,87.6342,272.4812,5.8445e-05,6.42e-06,0.0,0 STARLINK-3865,1 52460U 22049K   24213.17908067  .00000642  00000-0  58445-4 0  9996,2 52460  53.2161 172.0194 0001412  87.6342 272.4812 15.08845071123864,6917.865,95.437,540.707,538.753,0.0
52460.0,STARLINK-3865,PAYLOAD,2024-07-31 13:50:11,15.08839169,0.0001393,53.2157,170.2352,86.3766,273.7386,2.0618e-05,4e-07,0.0,0 STARLINK-3865,1 52460U 22049K   24213.57652487  .00000040  00000-0  20618-4 0  9995,2 52460  53.2157 170.2352 0001393  86.3766 273.7386 15.08839169123769,6917.883,95.438,540.712,538.784,0.0
52460.0,STARLINK-3865,PAYLOAD,2024-07-31 21:47:07,15.08834987,0.0001449,53.2163,168.7497,89.6778,270.438,8.5787e-06,-1.51e-06,0.0,0 STARLINK-3865,1 52460U 22049K   24213.90772869 -.00000151  00000-0  85787-5 0  9992,2 52460  53.2163 168.7497 0001449  89.6778 270.4380 15.08834987123973,6917.896,95.438,540.763,538.758,0.0
52460.0,STARLINK-3865,PAYLOAD,2024-08-01 04:08:40,15.08837365,0.0001454,53.2165,167.5605,90.1831,269.9328,2.6204e-05,1.29e-06,0.0,0 STARLINK-3865,1 52460U 22049K   24214.17268709  .00000129  00000-0  26204-4 0  9997,2 52460  53.2165 167.5605 0001454  90.1831 269.9328 15.08837365123851,6917.888,95.438,540.759,538.748,0.0
52460.0,STARLINK-3865,PAYLOAD,2024-08-01 21:37:54,15.08840388,0.0001472,53.2166,164.2902,94.6975,265.4185,2.1071e-05,4.7e-07,0.0,0 STARLINK-3865,1 52460U 22049K   24214.90132562  .00000047  00000-0  21071-4 0  9991,2 52460  53.2166 164.2902 0001472  94.6975 265.4185 15.08840388123967,6917.879,95.438,540.763,538.726,0.0
52460.0,STARLINK-3865,PAYLOAD,2024-08-02 03:59:26,15.08843149,0.0001463,53.2165,163.1009,95.045,265.0709,4.3601e-05,4.06e-06,0.0,0 STARLINK-3865,1 52460U 22049K   24215.16628322  .00000406  00000-0  43601-4 0  9996,2 52460  53.2165 163.1009 0001463  95.0450 265.0709 15.08843149124164,6917.871,95.437,540.748,538.724,0.0
52460.0,STARLINK-3865,PAYLOAD,2024-08-02 13:31:45,15.08838684,0.0001464,53.217,161.3162,89.9229,270.1931,2.7605e-05,1.51e-06,0.0,0 STARLINK-3865,1 52460U 22049K   24215.56372674  .00000151  00000-0  27605-4 0  9999,2 52460  53.2170 161.3162 0001464  89.9229 270.1931 15.08838684124068,6917.884,95.438,540.762,538.737,0.0
